NORAD_CAT_ID,OBJECT_NAME,OBJECT_TYPE,EPOCH,MEAN_MOTION,ECCENTRICITY,INCLINATION,RA_OF_ASC_NODE,ARG_OF_PERICENTER,MEAN_ANOMALY,BSTAR,MEAN_MOTION_DOT,MEAN_MOTION_DDOT,TLE_LINE0,TLE_LINE1,TLE_LINE2,SEMIMAJOR_AXIS,PERIOD,APOGEE,PERIGEE,DECAYED
49169.0,STARLINK-3046,PAYLOAD,2022-07-08 20:09:11,14.96720078,0.0002747,69.9999,52.3708,255.1245,104.9609,2.6587e-05,2.13e-06,0.0,0 STARLINK-3046,1 49169U 21082AR  22189.83971117  .00000213  00000-0  26587-4 0  9999,2 49169  69.9999  52.3708 0002747 255.1245 104.9609 14.96720078 45788,6955.176,96.21,578.951,575.13,0.0
49169.0,STARLINK-3046,PAYLOAD,2022-07-09 02:34:07,14.96723822,0.0002777,70.0,51.6987,255.5484,104.5367,3.0967e-05,2.63e-06,0.0,0 STARLINK-3046,1 49169U 21082AR  22190.10703534  .00000263  00000-0  30967-4 0  9999,2 49169  70.0000  51.6987 0002777 255.5484 104.5367 14.96723822 47034,6955.1640000000025,96.21,578.961,575.0980000000002,0.0
49169.0,STARLINK-3046,PAYLOAD,2022-07-09 15:24:02,14.96723095,0.0002561,70.0,50.354,250.9239,109.1642,-7.3654e-06,-1.76e-06,0.0,0 STARLINK-3046,1 49169U 21082AR  22190.64169021 -.00000176  00000-0 -73654-5 0  9991,2 49169  70.0000  50.3540 0002561 250.9239 109.1642 14.96723095 45906,6955.167,96.21,578.813,575.25,0.0
49169.0,STARLINK-3046,PAYLOAD,2022-07-10 01:01:29,14.96705844,0.0002892,69.9995,49.3458,254.3913,105.6926,-0.00021195,-2.516e-05,0.0,0 STARLINK-3046,1 49169U 21082AR  22191.04269820 -.00002516  00000-0 -21195-3 0  9995,2 49169  69.9995  49.3458 0002892 254.3913 105.6926 14.96705844 47175,6955.22,96.211,579.096,575.0740000000002,0.0
49169.0,STARLINK-3046,PAYLOAD,2022-07-10 13:51:24,14.9669516,0.0002965,69.9994,48.00100000000001,254.6878,105.3952,-0.000158,-1.899e-05,0.0,0 STARLINK-3046,1 49169U 21082AR  22191.57736476 -.00001899  00000-0 -15800-3 0  9998,2 49169  69.9994  48.0010 0002965 254.6878 105.3952 14.96695160 46048,6955.253000000002,96.212,579.18,575.056,0.0
49169.0,STARLINK-3046,PAYLOAD,2022-07-10 17:03:52,14.966968,0.0002971,69.9995,47.6649,254.2174,105.8657,-0.00017272,-2.067e-05,0.0,0 STARLINK-3046,1 49169U 21082AR  22191.71102959 -.00002067  00000-0 -17272-3 0  9990,2 49169  69.9995  47.6649 0002971 254.2174 105.8657 14.96696800 47279,6955.248000000001,96.212,579.179,575.047,0.0
49169.0,STARLINK-3046,PAYLOAD,2022-07-10 20:16:21,14.96700058,0.0002958,69.9995,47.3288,253.9477,106.1356,-0.00013591,-1.646e-05,0.0,0 STARLINK-3046,1 49169U 21082AR  22191.84469197 -.00001646  00000-0 -13591-3 0  9996,2 49169  69.9995  47.3288 0002958 253.9477 106.1356 14.96700058 46081,6955.238,96.212,579.16,575.0459999999998,0.0
49169.0,STARLINK-3046,PAYLOAD,2022-07-11 01:05:03,14.96707455,0.0002861,69.9995,46.8239,256.0007,104.0833,-6.9967e-05,-8.92e-06,0.0,0 STARLINK-3046,1 49169U 21082AR  22192.04518331 -.00000892  00000-0 -69967-4 0  9995,2 49169  69.9995  46.8239 0002861 256.0007 104.0833 14.96707455 47320,6955.215,96.211,579.07,575.09,0.0
49169.0,STARLINK-3046,PAYLOAD,2022-07-11 07:30:00,14.96714735,0.000291,69.9999,46.1519,255.6823,104.4012,-7.6464e-06,-1.79e-06,0.0,0 STARLINK-3046,1 49169U 21082AR  22192.31250624 -.00000179  00000-0 -76464-5 0  9992,2 49169  69.9999  46.1519 0002910 255.6823 104.4012 14.96714735 46156,6955.191999999999,96.211,579.081,575.033,0.0
49169.0,STARLINK-3046,PAYLOAD,2022-07-11 20:19:54,14.96707451,0.0002914,70.0005,44.807,255.0469,105.0366,0.0001759,1.922e-05,0.0,0 STARLINK-3046,1 49169U 21082AR  22192.84716358  .00001922  00000-0  17590-3 0  9999,2 49169  70.0005  44.8070 0002914 255.0469 105.0366 14.96707451 46233,6955.215,96.211,579.107,575.053,0.0
49169.0,STARLINK-3046,PAYLOAD,2022-07-12 07:33:34,14.96709815,0.0002939,70.0004,43.6305,255.2751,104.8082,0.00031165,3.477e-05,0.0,0 STARLINK-3046,1 49169U 21082AR  22193.31498566  .00003477  00000-0  31165-3 0  9991,2 49169  70.0004  43.6305 0002939 255.2751 104.8082 14.96709815 46309,6955.208000000001,96.211,579.117,575.029,0.0
49169.0,STARLINK-3046,PAYLOAD,2022-07-12 20:23:28,14.96719165,0.0003179,70.0001,42.2859,257.6743,102.4059,0.0003224,3.601e-05,0.0,0 STARLINK-3046,1 49169U 21082AR  22193.84963744  .00003601  00000-0  32240-3 0  9998,2 49169  70.0001  42.2859 0003179 257.6743 102.4059 14.96719165 46384,6955.179,96.21,579.255,574.8330000000002,0.0
49169.0,STARLINK-3046,PAYLOAD,2022-07-13 01:12:11,14.96722828,0.0003056,70.0002,41.7814,254.2512,105.8309,0.00035115,3.931e-05,0.0,0 STARLINK-3046,1 49169U 21082AR  22194.05013086  .00003931  00000-0  35115-3 0  9997,2 49169  70.0002  41.7814 0003056 254.2512 105.8309 14.96722828 47624,6955.167,96.21,579.158,574.9069999999998,0.0
49169.0,STARLINK-3046,PAYLOAD,2022-07-13 07:37:07,14.96732666,0.0003095,70.0001,41.1092,254.8302,105.2514,0.00023861,2.642e-05,0.0,0 STARLINK-3046,1 49169U 21082AR  22194.31745279  .00002642  00000-0  23861-3 0  9995,2 49169  70.0001  41.1092 0003095 254.8302 105.2514 14.96732666 46454,6955.137,96.21,579.155,574.849,0.0
49169.0,STARLINK-3046,PAYLOAD,2022-07-13 20:27:02,14.96723785,0.000304,70.0003,39.7648,254.3967,105.6856,0.0001097,1.164e-05,0.0,0 STARLINK-3046,1 49169U 21082AR  22194.85211368  .00001164  00000-0  10970-3 0  9996,2 49169  70.0003  39.7648 0003040 254.3967 105.6856 14.96723785 46532,6955.1640000000025,96.21,579.144,574.915,0.0
49169.0,STARLINK-3046,PAYLOAD,2022-07-14 01:15:45,14.96724279,0.0003101,70.0002,39.2605,255.8355,104.2459,7.7667e-05,7.98e-06,0.0,0 STARLINK-3046,1 49169U 21082AR  22195.05260860  .00000798  00000-0  77667-4 0  9999,2 49169  70.0002  39.2605 0003101 255.8355 104.2459 14.96724279 47774,6955.163000000001,96.21,579.185,574.871,0.0
49169.0,STARLINK-3046,PAYLOAD,2022-07-14 20:30:37,14.96716076,0.0003058999999999,70.0004,37.2436,253.3531,106.7291,-0.00011931,-1.457e-05,0.0,0 STARLINK-3046,1 49169U 21082AR  22195.85460056 -.00001457  00000-0 -11931-3 0  9992,2 49169  70.0004  37.2436 0003059 253.3531 106.7291 14.96716076 47897,6955.188,96.211,579.181,574.9259999999998,0.0
49169.0,STARLINK-3046,PAYLOAD,2022-07-15 06:08:02,14.96718523,0.000312,70.0002,36.2347,254.9704,105.1109,-9.5607e-05,-1.186e-05,0.0,0 STARLINK-3046,1 49169U 21082AR  22196.25558965 -.00001186  00000-0 -95607-4 0  9996,2 49169  70.0002  36.2347 0003120 254.9704 105.1109 14.96718523 46746,6955.181,96.21,579.216,574.876,0.0
49169.0,STARLINK-3046,PAYLOAD,2022-07-15 20:34:11,14.96714312,0.000295,70.0008,34.7227,252.8798,107.2038,5.334e-05,5.19e-06,0.0,0 STARLINK-3046,1 49169U 21082AR  22196.85707704  .00000519  00000-0  53340-4 0  9994,2 49169  70.0008  34.7227 0002950 252.8798 107.2038 14.96714312 48043,6955.194,96.211,579.111,575.007,0.0
49169.0,STARLINK-3046,PAYLOAD,2022-07-16 06:11:37,14.96716424,0.0002948,70.0007,33.7142,252.955,107.1286,7.280600000000001e-05,7.42e-06,0.0,0 STARLINK-3046,1 49169U 21082AR  22197.25806799  .00000742  00000-0  72806-4 0  9999,2 49169  70.0007  33.7142 0002948 252.9550 107.1286 14.96716424 46892,6955.187,96.211,579.1030000000002,575.002,0.0
49169.0,STARLINK-3046,PAYLOAD,2022-07-16 20:37:45,14.96719583,0.0003056,70.0003,32.2009,253.9042,106.178,0.00021666,2.389e-05,0.0,0 STARLINK-3046,1 49169U 21082AR  22197.85955179  .00002389  00000-0  21666-3 0  9998,2 49169  70.0003  32.2009 0003056 253.9042 106.1780 14.96719583 48194,6955.177,96.21,579.168,574.9169999999998,0.0
49169.0,STARLINK-3046,PAYLOAD,2022-07-17 06:15:10,14.96723529,0.0003043,70.0003,31.1924,253.506,106.5764,0.00024539,2.719e-05,0.0,0 STARLINK-3046,1 49169U 21082AR  22198.26054058  .00002719  00000-0  24539-3 0  9999,2 49169  70.0003  31.1924 0003043 253.5060 106.5764 14.96723529 47044,6955.165,96.21,579.1469999999998,574.914,0.0
49169.0,STARLINK-3046,PAYLOAD,2022-07-17 19:05:05,14.96717234,0.0003074,70.0002,29.8474,253.5625,106.5196,6.963600000000001e-05,7.06e-06,0.0,0 STARLINK-3046,1 49169U 21082AR  22198.79520253  .00000706  00000-0  69636-4 0  9994,2 49169  70.0002  29.8474 0003074 253.5625 106.5196 14.96717234 48336,6955.185,96.211,579.188,574.9119999999998,0.0
49169.0,STARLINK-3046,PAYLOAD,2022-07-18 06:18:45,14.96719935,0.0003102,70.0004,28.6708,253.541,106.5407,7.377100000000001e-05,7.53e-06,0.0,0 STARLINK-3046,1 49169U 21082AR  22199.26302375  .00000753  00000-0  73771-4 0  9997,2 49169  70.0004  28.6708 0003102 253.5410 106.5407 14.96719935 47197,6955.176,96.21,579.1990000000002,574.884,0.0
49169.0,STARLINK-3046,PAYLOAD,2022-07-18 20:44:53,14.96725736,0.0003118,70.0004,27.158,253.6837,106.3978,6.8661e-05,6.95e-06,0.0,0 STARLINK-3046,1 49169U 21082AR  22199.86450581  .00000695  00000-0  68661-4 0  9993,2 49169  70.0004  27.1580 0003118 253.6837 106.3978 14.96725736 48491,6955.158,96.21,579.192,574.855,0.0
49169.0,STARLINK-3046,PAYLOAD,2022-07-19 11:11:01,14.96728503,0.0003063,70.0006,25.6454,253.8821,106.2,-0.00014625,-1.766e-05,0.0,0 STARLINK-3046,1 49169U 21082AR  22200.46599314 -.00001766  00000-0 -14625-3 0  9992,2 49169  70.0006  25.6454 0003063 253.8821 106.2000 14.96728503 47376,6955.15,96.21,579.145,574.884,0.0
49169.0,STARLINK-3046,PAYLOAD,2022-07-19 19:12:13,14.96712283,0.0003096,70.0006,24.8049,253.1511,106.9308,4.3707e-05,4.09e-06,0.0,0 STARLINK-3046,1 49169U 21082AR  22200.80015871  .00000409  00000-0  43707-4 0  9996,2 49169  70.0006  24.8049 0003096 253.1511 106.9308 14.96712283 48638,6955.2,96.211,579.2180000000002,574.9119999999998,0.0
49169.0,STARLINK-3046,PAYLOAD,2022-07-19 20:48:28,14.96712331,0.0003098,70.0006,24.6369,252.2191,107.8629,1.4876e-05,7.9e-07,0.0,0 STARLINK-3046,1 49169U 21082AR  22200.86699134  .00000079  00000-0  14876-4 0  9990,2 49169  70.0006  24.6369 0003098 252.2191 107.8629 14.96712331 47434,6955.2,96.211,579.22,574.91,0.0
49169.0,STARLINK-3046,PAYLOAD,2022-07-20 14:27:04,14.96720089,0.0003167,70.0004,22.7879,253.5552,106.5258,6.4463e-05,6.46e-06,0.0,0 STARLINK-3046,1 49169U 21082AR  22201.60213678  .00000646  00000-0  64463-4 0  9995,2 49169  70.0004  22.7879 0003167 253.5552 106.5258 14.96720089 47544,6955.176,96.21,579.244,574.8380000000002,0.0
